NORAD_CAT_ID,OBJECT_NAME,OBJECT_TYPE,EPOCH,MEAN_MOTION,ECCENTRICITY,INCLINATION,RA_OF_ASC_NODE,ARG_OF_PERICENTER,MEAN_ANOMALY,BSTAR,MEAN_MOTION_DOT,MEAN_MOTION_DDOT,TLE_LINE0,TLE_LINE1,TLE_LINE2,SEMIMAJOR_AXIS,PERIOD,APOGEE,PERIGEE,DECAYED
52540.0,STARLINK-3940,PAYLOAD,2022-08-10 22:00:00,15.08806747,0.0002025,53.2145,235.4557,45.6268,44.1396,0.002753,0.00043759,0.0,0 STARLINK-3940,1 52540U 22051H   22222.91667824  .00043759  00000-0  27530-2 0  9996,2 52540  53.2145 235.4557 0002025  45.6268  44.1396 15.08806747  1306,6917.982,95.44,541.248,538.446,0.0
52540.0,STARLINK-3940,PAYLOAD,2022-08-11 06:00:02,15.08844538,0.0002215,53.2145,233.9605,44.7192,56.6835,-0.0016952999999999,-0.00027172,0.0,0 STARLINK-3940,1 52540U 22051H   22223.25002315 -.00027172  00000-0 -16953-2 0  9992,2 52540  53.2145 233.9605 0002215  44.7192  56.6835 15.08844538 14287,6917.8669999999975,95.437,541.264,538.1990000000002,0.0
52540.0,STARLINK-3940,PAYLOAD,2022-08-11 14:00:01,15.08837369,0.0002293,53.2145,232.4643,41.7009,71.2242,2.5019e-05,1.1e-06,0.0,0 STARLINK-3940,1 52540U 22051H   22223.58334491  .00000110  00000-0  25019-4 0  9997,2 52540  53.2145 232.4643 0002293  41.7009  71.2242 15.08837369  1301,6917.888000000001,95.438,541.34,538.1669999999998,0.0
52540.0,STARLINK-3940,PAYLOAD,2022-08-11 22:00:00,15.08818262,0.000214,53.2148,230.9662,46.7513,77.7731,0.0026027,0.00041353,0.0,0 STARLINK-3940,1 52540U 22051H   22223.91667824  .00041353  00000-0  26027-2 0  9995,2 52540  53.2148 230.9662 0002140  46.7513  77.7731 15.08818262 14381,6917.946999999999,95.439,541.2919999999998,538.331,0.0
52540.0,STARLINK-3940,PAYLOAD,2022-08-12 14:00:01,15.08854277,0.0002378,53.215,227.9746,43.4741,104.2365,-0.00038202,-6.366e-05,0.0,0 STARLINK-3940,1 52540U 22051H   22224.58334491 -.00006366  00000-0 -38202-3 0  9996,2 52540  53.2150 227.9746 0002378  43.4741 104.2365 15.08854277  1306,6917.837,95.437,541.347,538.057,0.0
52540.0,STARLINK-3940,PAYLOAD,2022-08-12 22:00:01,15.08837743,0.0002203,53.2154,226.4765,47.9944,111.3899,0.0012605,0.00019829,0.0,0 STARLINK-3940,1 52540U 22051H   22224.91668981  .00019829  00000-0  12605-2 0  9991,2 52540  53.2154 226.4765 0002203  47.9944 111.3899 15.08837743  1306,6917.887,95.438,541.276,538.2280000000002,0.0
52540.0,STARLINK-3940,PAYLOAD,2022-08-13 14:00:01,15.08840431,0.0002336999999999,53.2156,223.485,43.258,139.252,-0.0010592,-0.00017107,0.0,0 STARLINK-3940,1 52540U 22051H   22225.58334491 -.00017107  00000-0 -10592-2 0  9993,2 52540  53.2156 223.4850 0002337  43.2580 139.2520 15.08840431  1301,6917.879,95.438,541.361,538.127,0.0
52540.0,STARLINK-3940,PAYLOAD,2022-08-13 22:00:00,15.08817101,0.0002173,53.2159,221.9872,48.3356,145.7669,0.0022278,0.00035324,0.0,0 STARLINK-3940,1 52540U 22051H   22225.91667824  .00035324  00000-0  22278-2 0  9992,2 52540  53.2159 221.9872 0002173  48.3356 145.7669 15.08817101  1300,6917.95,95.439,541.319,538.312,0.0
52540.0,STARLINK-3940,PAYLOAD,2022-08-14 14:00:01,15.08854172,0.0002335999999999,53.2159,218.9957,45.2285,172.0451,-0.0015213,-0.00024429,0.0,0 STARLINK-3940,1 52540U 22051H   22226.58334491 -.00024429  00000-0 -15213-2 0  9994,2 52540  53.2159 218.9957 0002336  45.2285 172.0451 15.08854172 14796,6917.837,95.437,541.318,538.086,0.0
52540.0,STARLINK-3940,PAYLOAD,2022-08-14 22:00:00,15.08829031,0.0002189,53.2162,217.498,50.4697,178.4077,0.0021354,0.00033851,0.0,0 STARLINK-3940,1 52540U 22051H   22226.91667824  .00033851  00000-0  21354-2 0  9990,2 52540  53.2162 217.4980 0002189  50.4697 178.4077 15.08829031  1304,6917.9140000000025,95.438,541.293,538.265,0.0
52540.0,STARLINK-3940,PAYLOAD,2022-08-15 06:00:00,15.08847302,0.0002362,53.2162,216.0034,47.2994,193.1763,-0.00062809,-0.00010273,0.0,0 STARLINK-3940,1 52540U 22051H   22227.25001157 -.00010273  00000-0 -62809-3 0  9995,2 52540  53.2162 216.0034 0002362  47.2994 193.1763 15.08847302 14891,6917.858,95.437,541.357,538.089,0.0
52540.0,STARLINK-3940,PAYLOAD,2022-08-15 14:00:01,15.08875213,0.0002288,53.2159,214.5065,46.5243,205.5452,-0.0048965,-0.00077457,0.0,0 STARLINK-3940,1 52540U 22051H   22227.58334491 -.00077457  00000-0 -48965-2 0  9994,2 52540  53.2159 214.5065 0002288  46.5243 205.5452 15.08875213  1307,6917.773,95.435,541.221,538.055,0.0
52540.0,STARLINK-3940,PAYLOAD,2022-08-15 22:00:00,15.08810885,0.0002133,53.2161,213.009,50.9347,212.7428,0.0020071,0.00031774,0.0,0 STARLINK-3940,1 52540U 22051H   22227.91667824  .00031774  00000-0  20071-2 0  9998,2 52540  53.2161 213.0090 0002133  50.9347 212.7428 15.08810885  1302,6917.969,95.439,541.31,538.359,0.0
52540.0,STARLINK-3940,PAYLOAD,2022-08-16 06:00:02,15.08824738,0.0002329,53.216,211.5144,47.5479,227.7684,-0.00032829,-5.507e-05,0.0,0 STARLINK-3940,1 52540U 22051H   22228.25002315 -.00005507  00000-0 -32829-3 0  9996,2 52540  53.2160 211.5144 0002329  47.5479 227.7684 15.08824738 15047,6917.927,95.439,541.403,538.181,0.0
52540.0,STARLINK-3940,PAYLOAD,2022-08-16 14:00:01,15.08846242,0.0002286,53.2157,210.0176,47.4645,239.3601,-0.0021465,-0.00034295,0.0,0 STARLINK-3940,1 52540U 22051H   22228.58334491 -.00034295  00000-0 -21465-2 0  9994,2 52540  53.2157 210.0176 0002286  47.4645 239.3601 15.08846242  1304,6917.861,95.437,541.308,538.145,0.0
52540.0,STARLINK-3940,PAYLOAD,2022-08-16 22:00:00,15.08822363,0.0002236,53.2166,208.5131,49.9655,248.4507,0.0016724,0.00026416,0.0,0 STARLINK-3940,1 52540U 22051H   22228.91667824  .00026416  00000-0  16724-2 0  9996,2 52540  53.2166 208.5131 0002236  49.9655 248.4507 15.08822363  1304,6917.934,95.439,541.346,538.252,0.0
52540.0,STARLINK-3940,PAYLOAD,2022-08-17 06:00:02,15.08832919,0.0002411999999999,53.2157,207.0256,49.3101,260.756,2.8143e-05,1.59e-06,0.0,0 STARLINK-3940,1 52540U 22051H   22229.25002315  .00000159  00000-0  28143-4 0  9998,2 52540  53.2157 207.0256 0002412  49.3101 260.7560 15.08832919 15198,6917.901999999999,95.438,541.436,538.0980000000002,0.0
52540.0,STARLINK-3940,PAYLOAD,2022-08-17 16:00:00,15.08844642,0.0002314,53.2157,205.1539,51.2113,3.279,-0.00064722,-0.00010576,0.0,0 STARLINK-3940,1 52540U 22051H   22229.66667824 -.00010576  00000-0 -64722-3 0  9993,2 52540  53.2157 205.1539 0002314  51.2113   3.2790 15.08844642  1306,6917.866,95.437,541.332,538.13,0.0
52540.0,STARLINK-3940,PAYLOAD,2022-08-18 08:00:01,15.08840809,0.0002474,53.2157,202.1627,49.4292,28.2742,0.0019492,0.00030871,0.0,0 STARLINK-3940,1 52540U 22051H   22230.33334491  .00030871  00000-0  19492-2 0  9991,2 52540  53.2157 202.1627 0002474  49.4292  28.2742 15.08840809 15350,6917.878000000002,95.438,541.4540000000002,538.031,0.0
52540.0,STARLINK-3940,PAYLOAD,2022-08-18 14:00:01,15.0888032,0.0002376,53.2155,201.0393,49.8293,306.5762,-0.0044243,-0.00070097,0.0,0 STARLINK-3940,1 52540U 22051H   22230.58334491 -.00070097  00000-0 -44243-2 0  9996,2 52540  53.2155 201.0393 0002376  49.8293 306.5762 15.08880320  1308,6917.757,95.435,541.266,537.9780000000002,0.0
52540.0,STARLINK-3940,PAYLOAD,2022-08-18 22:00:00,15.08836674,0.0002295999999999,53.2158,199.542,54.2834,313.7347,0.0019210999999999,0.00030416,0.0,0 STARLINK-3940,1 52540U 22051H   22230.91667824  .00030416  00000-0  19211-2 0  9998,2 52540  53.2158 199.5420 0002296  54.2834 313.7347 15.08836674 15447,6917.891,95.438,541.344,538.1669999999998,0.0
52540.0,STARLINK-3940,PAYLOAD,2022-08-19 14:00:01,15.0887563,0.0002369,53.2158,196.5501,49.6674,341.5156,-0.0046121,-0.00073021,0.0,0 STARLINK-3940,1 52540U 22051H   22231.58334491 -.00073021  00000-0 -46121-2 0  9994,2 52540  53.2158 196.5501 0002369  49.6674 341.5156 15.08875630  1307,6917.771,95.435,541.275,537.998,0.0
52540.0,STARLINK-3940,PAYLOAD,2022-08-19 16:00:00,15.0884521,0.0002290999999999,53.216,196.1756,50.9321,73.1616,-0.0017783,-0.00028484,0.0,0 STARLINK-3940,1 52540U 22051H   22231.66667824 -.00028484  00000-0 -17783-2 0  9997,2 52540  53.2160 196.1756 0002291  50.9321  73.1616 15.08845210 15558,6917.864000000001,95.437,541.314,538.145,0.0
52540.0,STARLINK-3940,PAYLOAD,2022-08-19 22:00:00,15.08828097,0.0002288,53.2161,195.053,53.2967,349.4892,0.0012637,0.00019875,0.0,0 STARLINK-3940,1 52540U 22051H   22231.91667824  .00019875  00000-0  12637-2 0  9990,2 52540  53.2161 195.0530 0002288  53.2967 349.4892 15.08828097  1302,6917.917,95.438,541.365,538.1990000000002,0.0
52540.0,STARLINK-3940,PAYLOAD,2022-08-20 08:00:01,15.08822424,0.0002445,53.216,193.1845,47.5897,99.6861,0.0013019,0.00020483,0.0,0 STARLINK-3940,1 52540U 22051H   22232.33334491  .00020483  00000-0  13019-2 0  9990,2 52540  53.2160 193.1845 0002445  47.5897  99.6861 15.08822424 15653,6917.934,95.439,541.491,538.1080000000002,0.0
52540.0,STARLINK-3940,PAYLOAD,2022-08-20 14:00:01,15.088444099999998,0.0002311999999999,53.2161,192.0609,49.903,16.0635,-0.0028413,-0.00045231,0.0,0 STARLINK-3940,1 52540U 22051H   22232.58334491 -.00045231  00000-0 -28413-2 0  9991,2 52540  53.2161 192.0609 0002312  49.9030  16.0635 15.08844410  1306,6917.8669999999975,95.437,541.331,538.132,0.0
52540.0,STARLINK-3940,PAYLOAD,2022-08-20 22:00:00,15.08825282,0.0002254,53.2163,190.564,53.3105,24.2315,0.00078216,0.00012177,0.0,0 STARLINK-3940,1 52540U 22051H   22232.91667824  .00012177  00000-0  78216-3 0  9995,2 52540  53.2163 190.5640 0002254  53.3105  24.2315 15.08825282 15748,6917.925,95.438,541.35,538.231,0.0
52540.0,STARLINK-3940,PAYLOAD,2022-08-21 14:00:01,15.08842202,0.0002313,53.2162,187.5718,51.7015,48.9985,-0.0012125,-0.00019535,0.0,0 STARLINK-3940,1 52540U 22051H   22233.58334491 -.00019535  00000-0 -12125-2 0  9993,2 52540  53.2162 187.5718 0002313  51.7015  48.9985 15.08842202  1301,6917.874,95.437,541.339,538.139,0.0
52540.0,STARLINK-3940,PAYLOAD,2022-08-21 22:00:00,15.08844621,0.0002285,53.2164,186.0751,55.3596,56.9258,0.00020356,2.953e-05,0.0,0 STARLINK-3940,1 52540U 22051H   22233.91667824  .00002953  00000-0  20356-3 0  9999,2 52540  53.2164 186.0751 0002285  55.3596  56.9258 15.08844621 15894,6917.866,95.437,541.312,538.151,0.0
